NTS 2
1 10091U 77053A   16148.73113598 -.00000046 +00000-0 +00000-0 0  9991
2 10091 064.3585 035.3422 0060400 227.4236 325.2277 02.00448371285067
COSMOS 921
1 10095U 77055A   16149.45962638  .00000152  00000-0  16972-4 0  9990
2 10095  75.8341 274.2499 0038218  37.4097 322.9744 14.91589791106736
SL-14 R/B
1 10096U 77055B   16149.03889959  .00000125  00000-0  15366-4 0  9995
2 10096  75.8337 323.6487 0042412 108.1557 252.4259 14.88465292104940
SL-3 R/B
1 10114U 77057B   16149.53157833  .00000566  00000-0  32470-4 0  9996
2 10114  97.2044 345.2982 0013061 218.1048 141.9263 15.16251444125257
COSMOS 923
1 10120U 77059A   16149.53166497  .00000027  00000-0  19710-4 0  9995
2 10120  74.0492 236.5121 0013578 334.0227  26.0241 14.31862883 30559
SL-8 R/B
1 10121U 77059B   16149.47797067  .00000057  00000-0  28885-4 0  9998
2 10121  74.0468 117.1223 0019559 207.2994 152.7132 14.35760666 34647
THORAD AGENA D DEB
1 10136U 70025NQ  16150.24235284 -.00000019  00000-0  40564-4 0  9992
2 10136  99.9477  55.1420 0001899  58.0351  93.8840 13.51564628274763
COSMOS 926
1 10137U 77062A   16150.23013275  .00000032  00000-0  18281-4 0  9999
2 10137  82.9417 195.3671 0033827 122.4093 303.1045 13.72270855947131
SL-8 R/B
1 10138U 77062B   16149.62588685  .00000141  00000-0  13488-3 0  9997
2 10138  82.9390 169.4171 0021348  23.8779  97.6601 13.73799366946663
COSMOS 928
1 10141U 77064A   16149.51417841  .00000050  00000-0  34862-4 0  9995
2 10141  82.9653 336.5336 0037480 201.2477 187.6844 13.76592934952571
SL-8 R/B
1 10142U 77064B   16149.57268103 -.00000011  00000-0 -26726-4 0  9996
2 10142  82.9640 304.5313 0043148  79.8015 350.4298 13.78587519955079
HIMAWARI 1 (GMS 1)
1 10143U 77065A   16137.25634863 -.00000218 +00000-0 +00000-0 0  9991
2 10143 013.9210 331.7017 0018350 148.3168 200.4669 00.99252712084654
DELTA 1 R/B(1)
1 10144U 77065B   16149.93580698  .00000238  00000-0  50326-4 0  9997
2 10144  29.0624 355.1970 0858982  58.3476 309.8002 13.21470926876499
COSMOS 931
1 10150U 77068A   16148.93771200 +.00000832 +00000-0 +00000-0 0  9997
2 10150 069.1204 259.9483 5337893 065.2719 341.9075 02.00574372285104
SL-6 R/B(2)
1 10155U 77054D   16148.33787251  .00000763  00000-0 -88634-3 0  9990
2 10155  62.2833 156.1074 7274352 267.3747  15.6457  2.09240890185992
RADUGA 3
1 10159U 77071A   16149.79132086  .00000129  00000-0  00000+0 0  9996
2 10159  12.2553 320.8765 0010825 189.6568  55.4130  1.00270590140238
SL-6 R/B(2)
1 10167U 77068D   16149.25974497 -.00000147  00000-0  00000+0 0  9993
2 10167  66.6144 338.3638 6078787  67.3088 344.3726  1.99820117207458
DELTA 1 DEB
1 10177U 77065F   16150.20358652  .00001226  00000-0  20255-3 0  9993
2 10177  28.2269 151.9620 0569153  32.3235 331.0925 13.94125209782116
DELTA 1 DEB
1 10178U 77065G   16150.00927961  .00001956  00000-0  62152-2 0  9998
2 10178  28.7199  88.5968 0918062  52.4212  18.5535 12.05123808566768
DELTA 1 DEB
1 10183U 77065M   16150.18331463  .00000480  00000-0  10958-3 0  9998
2 10183  29.2108 141.7348 0558995 212.4765 144.0207 13.78020406901686
DELTA 1 DEB
1 10184U 77065N   16149.49795171  .00000175  00000-0  22590-4 0  9998
2 10184  29.0738 186.8569 0787668  83.0907 285.8523 13.41969303872950
DELTA 1 DEB
1 10188U 77065S   16149.86241993  .00000432  00000-0  84127-4 0  9991
2 10188  29.0681  55.8965 0706267 176.8648 183.6658 13.55805204891448
DELTA 1 DEB
1 10198U 77065AB  16149.54673648  .00000999  00000-0  72366-3 0  9992
2 10198  29.5701 335.5901 0657613 186.1652 173.0466 13.20248481843137
DELTA 1 DEB
1 10201U 77065AE  16148.48296764  .00000407  00000-0  57012-4 0  9995
2 10201  29.0933 276.2714 0710550 293.4158  59.3266 13.64003414905631
DELTA 1 DEB
1 10204U 77065AH  16148.93766875 +.00003514 +00000-0 +57981-3 0  9999
2 10204 028.8372 357.0806 0316746 095.0143 268.6665 14.40017459942972
DELTA 1 DEB
1 10206U 77065AK  16150.02764987  .00001796  00000-0  13383-2 0  9993
2 10206  29.2168  68.5779 0599445 120.0751 246.0618 13.30228770842838
DELTA 1 DEB
1 10207U 77065AL  16149.54868009  .00001260  00000-0  23601-2 0  9999
2 10207  29.0911 313.7911 0692246 203.5832 153.1457 12.67722200787255
DELTA 1 DEB
1 10208U 77065AM  16149.41714476  .00000926  00000-0  14928-3 0  9995
2 10208  28.9323 207.8141 0479961 141.5558 222.0233 14.09762721922936
DELTA 1 DEB
1 10211U 77065AQ  16149.46926977 -.00000543  00000-0 -12174-2 0  9992
2 10211  29.4676 202.7402 0690533 111.8940 255.6441 12.66063042644706
DELTA 1 DEB
1 10214U 77065AT  16148.46371734  .00000287  00000-0  89604-4 0  9996
2 10214  28.8723 293.2960 0588923 314.0455  41.3020 13.55175535871149
DELTA 1 DEB
1 10220U 77065AX  16149.84932528  .00001925  00000-0  82456-3 0  9997
2 10220  29.1410  34.0510 0491956  15.9982 345.5541 13.72725207887236
DELTA 1 DEB
1 10221U 77065AY  16148.58533042  .00002114  00000-0  27771-3 0  9996
2 10221  29.0517 236.2513 0451574 213.9303 143.1601 14.24761856944749
DELTA 1 DEB
1 10227U 77065BE  16148.47882505  .00000269  00000-0  63236-4 0  9997
2 10227  28.9519 264.0147 0717285 337.5467  19.5134 13.42455329880060
DELTA 1 DEB
1 10229U 77065BG  16149.56064454  .00002494  00000-0  62971-3 0  9991
2 10229  28.8002 295.0098 0256108  47.8342 314.3691 14.30445579158013
DELTA 1 DEB
1 10230U 77065BH  16149.21599334  .00002507  00000-0  24585-3 0  9999
2 10230  29.0160 162.1197 0227593  79.8246 282.7931 14.71618096977915
DELTA 1 DEB
1 10234U 77065BM  16148.93980593 +.00000920 +00000-0 +89352-4 0  9993
2 10234 028.9584 031.4620 0449662 295.3895 060.0792 14.31233872950198
DELTA 1 DEB
1 10235U 77065BN  16150.10388035  .00017431  00000-0  59950-3 0  9994
2 10235  28.8453  96.7846 0140269 310.6029  48.2441 15.19617427993429
DELTA 1 DEB
1 10240U 77065BR  16149.51617032  .00001051  00000-0  77089-3 0  9999
2 10240  29.3922 198.6198 0715375 265.9353  85.9195 13.09920253589934
DELTA 1 DEB
1 10250U 77065CB  16149.53310234  .00000707  00000-0  13574-3 0  9992
2 10250  29.0756 303.3566 0593575  81.9818 284.7642 13.82869201797493
DELTA 1 DEB
1 10251U 77065CC  16149.00060273  .00001089  00000-0  14659-3 0  9999
2 10251  28.9749  30.1725 0724310  49.4794 316.6629 13.71758902911278
DELTA 1 DEB
1 10252U 77065CD  16150.15335419  .00000177  00000-0  42833-4 0  9998
2 10252  28.8384 141.5135 0786158 126.7405 240.7959 13.20497466853694
DELTA 1 DEB
1 10261U 77065CN  16149.46632184  .00001147  00000-0  12098-3 0  9996
2 10261  29.0156 183.4490 0365400  85.1890 279.0311 14.45375663953502
DELTA 1 DEB
1 10262U 77065CP  16148.42259941 +.00000824 +00000-0 +16285-3 0  9991
2 10262 029.0655 198.0616 0684606 243.3643 109.5224 13.64235122903178
COSMOS 939
1 10282U 77079A   16149.11041466 -.00000016  00000-0  10465-5 0  9996
2 10282  74.0261  13.3506 0019747 256.7358 218.4988 12.54238591774779
COSMOS 940
1 10286U 77079B   16149.86207384 -.00000028  00000-0 -70935-4 0  9996
2 10286  74.0245 209.6765 0043011  64.9924  56.7267 12.58845301781375
COSMOS 941
1 10287U 77079C   16148.88271686 -.00000017 +00000-0 -64976-5 0  9991
2 10287 074.0236 293.7661 0031444 173.7374 342.6514 12.56496363748799
COSMOS 942
1 10288U 77079D   16150.19586782 -.00000008  00000-0  57071-4 0  9991
2 10288  74.0265  72.4151 0044982 187.6117 283.4341 12.42211039757912
COSMOS 943
1 10289U 77079E   16149.17361902  .00000001  00000-0  10953-3 0  9992
2 10289  74.0251  90.4078 0007608 340.1349 125.6722 12.52045870771682
COSMOS 944
1 10290U 77079F   16149.71564270 -.00000023  00000-0 -48435-4 0  9990
2 10290  74.0224 173.7990 0006365 282.1479 202.5410 12.49655744768374
COSMOS 945
1 10291U 77079G   16149.78807801 -.00000020  00000-0 -31746-4 0  9992
2 10291  74.0244 259.2753 0018350 345.2872 130.4271 12.47199481764918
COSMOS 946
1 10292U 77079H   16150.03144817 -.00000011  00000-0  29391-4 0  9996
2 10292  74.0245 340.0771 0030455  91.7111  29.4083 12.44871787761657
SL-8 R/B
1 10293U 77079J   16148.91091794 +.00000041 +00000-0 +48445-3 0  9998
2 10293 074.0257 296.1744 0135232 129.2999 346.3494 12.25215816510677
SIRIO
1 10294U 77080A   16149.60476486 -.00000110  00000-0  00000+0 0  9992
2 10294  14.0517 336.5465 0004713  79.4784 123.2247  1.00271058 81107
DELTA 1 R/B(1)
1 10295U 77080B   16149.22502543  .00000062  00000-0 -39904-4 0  9991
2 10295  27.0923 219.1173 0767004 122.0295 245.7034 12.47959206768686
DELTA 1 DEB
1 10305U 77065DB  16149.34088775  .00001650  00000-0  36161-3 0  9999
2 10305  29.0529 148.1836 0226474 162.5022 198.3514 14.38980488910972
DELTA 1 DEB
1 10306U 77065DC  16150.11267107  .00000908  00000-0  22238-3 0  9990
2 10306  29.1041  70.8105 0706858  84.4829 283.5876 13.54975724891609
DELTA 1 DEB
1 10314U 77065DL  16149.56070457  .00000663  00000-0  21120-3 0  9993
2 10314  28.7870 324.3203 0697863 248.9389 152.5682 13.43419714864545
DELTA 1 DEB
1 10338U 77065DM  16150.02985823  .00000572  00000-0  93786-4 0  9991
2 10338  29.0660  79.6364 0674252 305.6489  48.3088 13.70128416908153
DELTA 1 DEB
1 10346U 77065DV  16148.40129072  .00000042  00000-0 -11390-4 0  9999
2 10346  29.2204 244.5705 0727000  66.1209 301.3793 13.29497968865689
COSMOS 951
1 10352U 77087A   16149.52843894  .00000030  00000-0  15645-4 0  9992
2 10352  82.9692 358.0938 0034376 165.0810 254.2836 13.74076231940499
SL-8 R/B
1 10355U 77087B   16149.03293394  .00000123  00000-0  11106-3 0  9995
2 10355  82.9696 332.6669 0034638  49.6188  63.5725 13.75757256942518
COSMOS 952
1 10358U 77088A   16149.55192390 -.00000076  00000-0  11288-4 0  9990
2 10358  64.9367 300.1393 0032045 120.2446 310.4445 13.83580030955467
EKRAN 2
1 10365U 77092A   16148.64119314  .00000086  00000-0  00000+0 0  9992
2 10365  12.3439 321.4373 0031089 255.8316 310.4263  1.00256509 98120
PROGNOZ 6
1 10370U 77093A   16150.14551841  .00001001  00000-0  00000+0 0  9990
2 10370  86.5154 316.3725 7255449 242.1741   0.5283  0.25331207 33430
